[{"OBJECT_NAME":"HAWK-8C","OBJECT_ID":"2024-066H","EPOCH":"2026-03-09T11:22:19.381152","MEAN_MOTION":14.98770227,"ECCENTRICITY":0.00039352,"INCLINATION":45.6068,"RA_OF_ASC_NODE":72.8656,"ARG_OF_PERICENTER":260.2975,"MEAN_ANOMALY":99.7462,"EPHEMERIS_TYPE":0,"CLASSIFICATION_TYPE":"U","NORAD_CAT_ID":59449,"ELEMENT_SET_NO":999,"REV_AT_EPOCH":10486,"BSTAR":0.00021518384,"MEAN_MOTION_DOT":2.4e-5,"MEAN_MOTION_DDOT":0},{"OBJECT_NAME":"STARLINK-36173","OBJECT_ID":"2025-304U","EPOCH":"2026-03-09T16:26:35.018592","MEAN_MOTION":14.99143783,"ECCENTRICITY":0.00036048,"INCLINATION":70.0013,"RA_OF_ASC_NODE":174.4831,"ARG_OF_PERICENTER":269.9682,"MEAN_ANOMALY":90.1065,"EPHEMERIS_TYPE":0,"CLASSIFICATION_TYPE":"U","NORAD_CAT_ID":67210,"ELEMENT_SET_NO":999,"REV_AT_EPOCH":1388,"BSTAR":0.00033818283,"MEAN_MOTION_DOT":4.03e-5,"MEAN_MOTION_DDOT":0}]
