HAWK-8C                 
1 59449U 24066H   26068.47383543  .00002400  00000+0  21518-3 0  9993
2 59449  45.6068  72.8656 0003935 260.2975  99.7462 14.98770227104860
STARLINK-36173          
1 67210U 25304U   26068.68512752  .00004030  00000+0  33818-3 0  9990
2 67210  70.0013 174.4831 0003605 269.9682  90.1065 14.99143783 13883
